{"type": "FeatureCollection", "features": [ {"type": "Feature", "properties": {"norad_id": 31443, "name": "FENGYUN 1C DEB", "group": "fengyun-1c-debris", "lat": 5.086201291760538, "lon": -102.22923555594896, "alt_km": 645.625902332039, "timestamp": "2025-12-04T05:42:43.655353+00:00", "meta": {"OBJECT_NAME": "FENGYUN 1C DEB", "OBJECT_ID": "1999-025BUF", "EPOCH": "2025-11-30T13:03:15.363648", "MEAN_MOTION": 14.48404183, "ECCENTRICITY": 0.0192811, "INCLINATION": 99.2107, "RA_OF_ASC_NODE": 72.916, "ARG_OF_PERICENTER": 134.4181, "MEAN_ANOMALY": 227.2974, "EPHEMERIS_TYPE": 0, "CLASSIFICATION_TYPE": "U", "NORAD_CAT_ID": 31443, "ELEMENT_SET_NO": 999, "REV_AT_EPOCH": 66765, "BSTAR": 0.0018323, "MEAN_MOTION_DOT": 8.637e-05, "MEAN_MOTION_DDOT": 0}, "tle": {"line1": "1 31443U 99025BUF 25334.54392782  .00008637  00000+0  18323-2 0  9999", "line2": "2 31443  99.2107  72.9160 0192811 134.4181 227.2974 14.48404183667654"}}, "geometry": {"type": "Point", "coordinates": [-102.22923555594896, 5.086201291760538]}}, {"type": "Feature", "properties": {"norad_id": 31444, "name": "FENGYUN 1C DEB", "group": "fengyun-1c-debris", "lat": -36.13384825581322, "lon": 92.89632988018035, "alt_km": 689.2174978108151, "timestamp": "2025-12-04T05:42:43.655375+00:00", "meta": {"OBJECT_NAME": "FENGYUN 1C DEB", "OBJECT_ID": "1999-025BUG", "EPOCH": "2025-12-02T13:31:09.816384", "MEAN_MOTION": 14.69612701, "ECCENTRICITY": 0.00622625, "INCLINATION": 98.9264, "RA_OF_ASC_NODE": 277.6562, "ARG_OF_PERICENTER": 103.1591, "MEAN_ANOMALY": 257.6569, "EPHEMERIS_TYPE": 0, "CLASSIFICATION_TYPE": "U", "NORAD_CAT_ID": 31444, "ELEMENT_SET_NO": 999, "REV_AT_EPOCH": 97339, "BSTAR": 0.0021571297, "MEAN_MOTION_DOT": 0.00013172, "MEAN_MOTION_DDOT": 0}, "tle": {"line1": "1 31444U 99025BUG 25336.56330806  .00013172  00000+0  21571-2 0  9992", "line2": "2 31444  98.9264 277.6562 0062262 103.1591 257.6569 14.69612701973397"}}, "geometry": {"type": "Point", "coordinates": [92.89632988018035, -36.13384825581322]}}, {"type": "Feature", "properties": {"norad_id": 31447, "name": "FENGYUN 1C DEB", "group": "fengyun-1c-debris", "lat": -32.77408788297052, "lon": -166.5615042709472, "alt_km": 979.0625068120498, "timestamp": "2025-12-04T05:42:43.655389+00:00", "meta": {"OBJECT_NAME": "FENGYUN 1C DEB", "OBJECT_ID": "1999-025BUK", "EPOCH": "2025-11-29T08:21:43.391232", "MEAN_MOTION": 14.24014054, "ECCENTRICITY": 0.02308258, "INCLINATION": 98.9936, "RA_OF_ASC_NODE": 14.2854, "ARG_OF_PERICENTER": 33.7171, "MEAN_ANOMALY": 327.8449, "EPHEMERIS_TYPE": 0, "CLASSIFICATION_TYPE": "U", "NORAD_CAT_ID": 31447, "ELEMENT_SET_NO": 999, "REV_AT_EPOCH": 64661, "BSTAR": 0.00017749079, "MEAN_MOTION_DOT": 4.86e-06, "MEAN_MOTION_DDOT": 0}, "tle": {"line1": "1 31447U 99025BUK 25333.34841888  .00000486  00000+0  17749-3 0  9992", "line2": "2 31447  98.9936  14.2854 0230825  33.7171 327.8449 14.24014054646616"}}, "geometry": {"type": "Point", "coordinates": [-166.5615042709472, -32.77408788297052]}}, {"type": "Feature", "properties": {"norad_id": 31448, "name": "FENGYUN 1C DEB", "group": "fengyun-1c-debris", "lat": 65.15868068286589, "lon": -171.39872659101331, "alt_km": 810.8279489424012, "timestamp": "2025-12-04T05:42:43.655399+00:00", "meta": {"OBJECT_NAME": "FENGYUN 1C DEB", "OBJECT_ID": "1999-025BUL", "EPOCH": "2025-12-02T19:32:21.678720", "MEAN_MOTION": 14.27758281, "ECCENTRICITY": 0.00583055, "INCLINATION": 98.4997, "RA_OF_ASC_NODE": 348.3701, "ARG_OF_PERICENTER": 233.3288, "MEAN_ANOMALY": 126.2527, "EPHEMERIS_TYPE": 0, "CLASSIFICATION_TYPE": "U", "NORAD_CAT_ID": 31448, "ELEMENT_SET_NO": 999, "REV_AT_EPOCH": 64162, "BSTAR": 0.00092327897, "MEAN_MOTION_DOT": 2.279e-05, "MEAN_MOTION_DDOT": 0}, "tle": {"line1": "1 31448U 99025BUL 25336.81413980  .00002279  00000+0  92328-3 0  9994", "line2": "2 31448  98.4997 348.3701 0058305 233.3288 126.2527 14.27758281641623"}}, "geometry": {"type": "Point", "coordinates": [-171.39872659101331, 65.15868068286589]}}, {"type": "Feature", "properties": {"norad_id": 31449, "name": "FENGYUN 1C DEB", "group": "fengyun-1c-debris", "lat": -79.31399254572374, "lon": 89.7686128716032, "alt_km": 688.314079543813, "timestamp": "2025-12-04T05:42:43.655412+00:00", "meta": {"OBJECT_NAME": "FENGYUN 1C DEB", "OBJECT_ID": "1999-025BUM", "EPOCH": "2025-12-03T09:59:33.936000", "MEAN_MOTION": 14.33687872, "ECCENTRICITY": 0.01441318, "INCLINATION": 98.5562, "RA_OF_ASC_NODE": 36.0319, "ARG_OF_PERICENTER": 296.5528, "MEAN_ANOMALY": 62.0943, "EPHEMERIS_TYPE": 0, "CLASSIFICATION_TYPE": "U", "NORAD_CAT_ID": 31449, "ELEMENT_SET_NO": 999, "REV_AT_EPOCH": 97503, "BSTAR": 0.00031813947, "MEAN_MOTION_DOT": 9.43e-06, "MEAN_MOTION_DDOT": 0}, "tle": {"line1": "1 31449U 99025BUM 25337.41636500  .00000943  00000+0  31814-3 0  9996", "line2": "2 31449  98.5562  36.0319 0144131 296.5528  62.0943 14.33687872975038"}}, "geometry": {"type": "Point", "coordinates": [89.7686128716032, -79.31399254572374]}}, {"type": "Feature", "properties": {"norad_id": 31451, "name": "FENGYUN 1C DEB", "group": "fengyun-1c-debris", "lat": -56.73185070321452, "lon": 34.08132972115458, "alt_km": 845.046548579925, "timestamp": "2025-12-04T05:42:43.655422+00:00", "meta": {"OBJECT_NAME": "FENGYUN 1C DEB", "OBJECT_ID": "1999-025BUP", "EPOCH": "2025-12-01T21:05:06.089280", "MEAN_MOTION": 14.13599737, "ECCENTRICITY": 0.00307329, "INCLINATION": 98.7648, "RA_OF_ASC_NODE": 18.169, "ARG_OF_PERICENTER": 242.8982, "MEAN_ANOMALY": 298.5579, "EPHEMERIS_TYPE": 0, "CLASSIFICATION_TYPE": "U", "NORAD_CAT_ID": 31451, "ELEMENT_SET_NO": 999, "REV_AT_EPOCH": 95856, "BSTAR": 0.00042989773, "MEAN_MOTION_DOT": 7.71e-06, "MEAN_MOTION_DDOT": 0}, "tle": {"line1": "1 31451U 99025BUP 25335.87854270  .00000771  00000+0  42990-3 0  9999", "line2": "2 31451  98.7648  18.1690 0030732 242.8982 298.5579 14.13599737958560"}}, "geometry": {"type": "Point", "coordinates": [34.08132972115458, -56.73185070321452]}}, {"type": "Feature", "properties": {"norad_id": 31452, "name": "FENGYUN 1C DEB", "group": "fengyun-1c-debris", "lat": 27.38651792676243, "lon": 149.95755708128738, "alt_km": 811.5248107425805, "timestamp": "2025-12-04T05:42:43.655432+00:00", "meta": {"OBJECT_NAME": "FENGYUN 1C DEB", "OBJECT_ID": "1999-025BUQ", "EPOCH": "2025-12-02T05:28:59.848608", "MEAN_MOTION": 14.15144251, "ECCENTRICITY": 0.004031, "INCLINATION": 98.658, "RA_OF_ASC_NODE": 323.48, "ARG_OF_PERICENTER": 157.7123, "MEAN_ANOMALY": 202.5814, "EPHEMERIS_TYPE": 0, "CLASSIFICATION_TYPE": "U", "NORAD_CAT_ID": 31452, "ELEMENT_SET_NO": 999, "REV_AT_EPOCH": 96057, "BSTAR": 0.00046116, "MEAN_MOTION_DOT": 8.6e-06, "MEAN_MOTION_DDOT": 0}, "tle": {"line1": "1 31452U 99025BUQ 25336.22847047  .00000860  00000+0  46116-3 0  9997", "line2": "2 31452  98.6580 323.4800 0040310 157.7123 202.5814 14.15144251960574"}}, "geometry": {"type": "Point", "coordinates": [149.95755708128738, 27.38651792676243]}}, {"type": "Feature", "properties": {"norad_id": 31455, "name": "FENGYUN 1C DEB", "group": "fengyun-1c-debris", "lat": -64.26184463081184, "lon": 128.60480302431347, "alt_km": 1017.6658675397493, "timestamp": "2025-12-04T05:42:43.655442+00:00", "meta": {"OBJECT_NAME": "FENGYUN 1C DEB", "OBJECT_ID": "1999-025BUT", "EPOCH": "2025-12-01T05:06:27.684288", "MEAN_MOTION": 14.11407074, "ECCENTRICITY": 0.0218887, "INCLINATION": 98.5737, "RA_OF_ASC_NODE": 323.9486, "ARG_OF_PERICENTER": 84.0104, "MEAN_ANOMALY": 278.5966, "EPHEMERIS_TYPE": 0, "CLASSIFICATION_TYPE": "U", "NORAD_CAT_ID": 31455, "ELEMENT_SET_NO": 999, "REV_AT_EPOCH": 95941, "BSTAR": 0.00026567, "MEAN_MOTION_DOT": 5.62e-06, "MEAN_MOTION_DDOT": 0}, "tle": {"line1": "1 31455U 99025BUT 25335.21282042  .00000562  00000+0  26567-3 0  9993", "line2": "2 31455  98.5737 323.9486 0218887  84.0104 278.5966 14.11407074959415"}}, "geometry": {"type": "Point", "coordinates": [128.60480302431347, -64.26184463081184]}}, {"type": "Feature", "properties": {"norad_id": 31456, "name": "FENGYUN 1C DEB", "group": "fengyun-1c-debris", "lat": 1.7006468560909935, "lon": 80.27926308872809, "alt_km": 708.5508675633691, "timestamp": "2025-12-04T05:42:43.655452+00:00", "meta": {"OBJECT_NAME": "FENGYUN 1C DEB", "OBJECT_ID": "1999-025BUU", "EPOCH": "2025-12-01T12:46:16.695552", "MEAN_MOTION": 14.42301332, "ECCENTRICITY": 0.00678284, "INCLINATION": 98.5781, "RA_OF_ASC_NODE": 77.816, "ARG_OF_PERICENTER": 348.4269, "MEAN_ANOMALY": 11.5358, "EPHEMERIS_TYPE": 0, "CLASSIFICATION_TYPE": "U", "NORAD_CAT_ID": 31456, "ELEMENT_SET_NO": 999, "REV_AT_EPOCH": 97305, "BSTAR": 0.00080227123, "MEAN_MOTION_DOT": 2.676e-05, "MEAN_MOTION_DDOT": 0}, "tle": {"line1": "1 31456U 99025BUU 25335.53213768  .00002676  00000+0  80227-3 0  9999", "line2": "2 31456  98.5781  77.8160 0067828 348.4269  11.5358 14.42301332973055"}}, "geometry": {"type": "Point", "coordinates": [80.27926308872809, 1.7006468560909935]}}, {"type": "Feature", "properties": {"norad_id": 31459, "name": "FENGYUN 1C DEB", "group": "fengyun-1c-debris", "lat": -72.93801564170545, "lon": 38.9077424339383, "alt_km": 760.413207994141, "timestamp": "2025-12-04T05:42:43.655467+00:00", "meta": {"OBJECT_NAME": "FENGYUN 1C DEB", "OBJECT_ID": "1999-025BUX", "EPOCH": "2025-11-29T11:26:52.184832", "MEAN_MOTION": 14.4388821, "ECCENTRICITY": 0.00932651, "INCLINATION": 98.1728, "RA_OF_ASC_NODE": 242.2547, "ARG_OF_PERICENTER": 172.3319, "MEAN_ANOMALY": 187.9324, "EPHEMERIS_TYPE": 0, "CLASSIFICATION_TYPE": "U", "NORAD_CAT_ID": 31459, "ELEMENT_SET_NO": 999, "REV_AT_EPOCH": 64366, "BSTAR": 0.0012379846, "MEAN_MOTION_DOT": 4.409e-05, "MEAN_MOTION_DDOT": 0}, "tle": {"line1": "1 31459U 99025BUX 25333.47699288  .00004409  00000+0  12380-2 0  9998", "line2": "2 31459  98.1728 242.2547 0093265 172.3319 187.9324 14.43888210643664"}}, "geometry": {"type": "Point", "coordinates": [38.9077424339383, -72.93801564170545]}}]}